Index,Number,Street Name,Details,Region,city,state
1,109,East Ann Street,Hoban Block,D,Ann Arbor,Michigan
1,110,East Ann Street,Hoban Block,D,Ann Arbor,Michigan
1,111,East Ann Street,Hoban Block,D,Ann Arbor,Michigan
1,112,East Ann Street,Hoban Block,D,Ann Arbor,Michigan
1,113,East Ann Street,Hoban Block,D,Ann Arbor,Michigan
1,114,East Ann Street,Hoban Block,D,Ann Arbor,Michigan
1,115,East Ann Street,Hoban Block,D,Ann Arbor,Michigan
1,116,East Ann Street,Hoban Block,D,Ann Arbor,Michigan
1,117,East Ann Street,Hoban Block,D,Ann Arbor,Michigan
1,118,East Ann Street,Hoban Block,D,Ann Arbor,Michigan
1,119,East Ann Street,Hoban Block,D,Ann Arbor,Michigan
2,201,East Ann Street,Washtenaw Bank,D,Ann Arbor,Michigan
2,202,East Ann Street,Washtenaw Bank,D,Ann Arbor,Michigan
2,203,East Ann Street,Washtenaw Bank,D,Ann Arbor,Michigan
2,204,East Ann Street,Washtenaw Bank,D,Ann Arbor,Michigan
2,205,East Ann Street,Washtenaw Bank,D,Ann Arbor,Michigan
2,206,East Ann Street,Washtenaw Bank,D,Ann Arbor,Michigan
2,207,East Ann Street,Washtenaw Bank,D,Ann Arbor,Michigan
2,208,East Ann Street,Washtenaw Bank,D,Ann Arbor,Michigan
2,209,East Ann Street,Washtenaw Bank,D,Ann Arbor,Michigan
2,210,East Ann Street,Washtenaw Bank,D,Ann Arbor,Michigan
2,211,East Ann Street,Washtenaw Bank,D,Ann Arbor,Michigan
3,223,East Ann Street,Ann Arbor Armory,D,Ann Arbor,Michigan
4,311,East Ann Street,James F. Royce House,D,Ann Arbor,Michigan
5,317,East Ann Street,George Corselius House,D,Ann Arbor,Michigan
6,511,East Ann Street,Willcoxson-Easton House,D,Ann Arbor,Michigan
7,712,East Ann Street,Moses and Jane Gunn House,D,Ann Arbor,Michigan
8,920,East Ann Street,Keating Family House,D,Ann Arbor,Michigan
9,1127,East Ann Street,Planada Apartments,D,Ann Arbor,Michigan
10,1308,East Ann Street,Detroit Observatory,D,Ann Arbor,Michigan
11,210,South Ashley Street,Herder Brothers,D,Ann Arbor,Michigan
12,416,South Ashley Street,"Toledo,Ann Arbor and Northern Michigan Railway Depot",D,Ann Arbor,Michigan
13,1000,Berkshire Road,Harry and Margaret Towsley House,E,Ann Arbor,Michigan
14,1001,Broadway Street,Anson Brown Building,N,Ann Arbor,Michigan
14,1002,Broadway Street,Anson Brown Building,N,Ann Arbor,Michigan
14,1003,Broadway Street,Anson Brown Building,N,Ann Arbor,Michigan
14,1004,Broadway Street,Anson Brown Building,N,Ann Arbor,Michigan
14,1005,Broadway Street,Anson Brown Building,N,Ann Arbor,Michigan
14,1006,Broadway Street,Anson Brown Building,N,Ann Arbor,Michigan
14,1007,Broadway Street,Anson Brown Building,N,Ann Arbor,Michigan
15,201,Catherine Street,Davis Block-Agricultural Hall,D,Ann Arbor,Michigan
16,216,Catherine Street,Anton Eisele House,D,Ann Arbor,Michigan
17,324,Catherine Street,W. G. and Mary Foster House,D,Ann Arbor,Michigan
18,1009,Cornwell Place,Wirt Cornwell House,D,Ann Arbor,Michigan
19,1014,Cornwell Place,George Dock House,D,Ann Arbor,Michigan
20,401,Depot Street,Michigan Central Depot,D,Ann Arbor,Michigan
21,417,Detroit Street,David Henning Cooper Shop,D,Ann Arbor,Michigan
22,422,Detroit Street,Desderide Grocery Store,D,Ann Arbor,Michigan
23,501,Detroit Street,Stofflet Block,D,Ann Arbor,Michigan
23,502,Detroit Street,Stofflet Block,D,Ann Arbor,Michigan
23,503,Detroit Street,Stofflet Block,D,Ann Arbor,Michigan
23,504,Detroit Street,Stofflet Block,D,Ann Arbor,Michigan
23,505,Detroit Street,Stofflet Block,D,Ann Arbor,Michigan
23,506,Detroit Street,Stofflet Block,D,Ann Arbor,Michigan
23,507,Detroit Street,Stofflet Block,D,Ann Arbor,Michigan
24,529,Detroit Street,John G. Miller Planing Mill,D,Ann Arbor,Michigan
25,1500,Dexter Avenue,Eunice Baldwin House,W,Ann Arbor,Michigan
26,120,North Division Street,George and Emma Wahr House,D,Ann Arbor,Michigan
27,121,North Division Street,Moses Rogers House,D,Ann Arbor,Michigan
28,126,North Division Street,Judge Robert S. Wilson House (Wilson-Wahr House),D,Ann Arbor,Michigan
29,205,North Division Street,Alonzo Palmer House (Laubengayer-Ryan House),D,Ann Arbor,Michigan
30,208,North Division Street,Ebenezer Wells House (Wells-Babcock House),D,Ann Arbor,Michigan
31,218,North Division Street,John W. Maynard House,D,Ann Arbor,Michigan
32,303,North Division Street,Andrew DeForest House,D,Ann Arbor,Michigan
33,306,North Division Street,St. Andrew's Episcopal Church,D,Ann Arbor,Michigan
34,406,North Division Street,George Rinsey House,D,Ann Arbor,Michigan
35,505,North Division Street,Clark Girls School,D,Ann Arbor,Michigan
36,538,North Division Street,Henry Cornwell House,D,Ann Arbor,Michigan
37,303,South Division Street,Emanuel Mann House,D,Ann Arbor,Michigan
38,312,South Division Street,Henry DeWitt Bennett House (Kempf House),D,Ann Arbor,Michigan
39,320,South Division Street,A. L. Noble House and Carriage House,D,Ann Arbor,Michigan
39,321,South Division Street,A. L. Noble House and Carriage House,D,Ann Arbor,Michigan
39,322,South Division Street,A. L. Noble House and Carriage House,D,Ann Arbor,Michigan
40,409,South Division Street,"First Church of Christ, Scientist",D,Ann Arbor,Michigan
41,530,South Division Street,John George Koch House,D,Ann Arbor,Michigan
42,17,Elizabeth Street,Complex of St. Thomas the Apostle,D,Ann Arbor,Michigan
42,520,Elizabeth Street,Complex of St. Thomas the Apostle,D,Ann Arbor,Michigan
42,530,Elizabeth Street,Complex of St. Thomas the Apostle,D,Ann Arbor,Michigan
42,531,Elizabeth Street,Complex of St. Thomas the Apostle,D,Ann Arbor,Michigan
42,532,Elizabeth Street,Complex of St. Thomas the Apostle,D,Ann Arbor,Michigan
42,533,Elizabeth Street,Complex of St. Thomas the Apostle,D,Ann Arbor,Michigan
42,534,Elizabeth Street,Complex of St. Thomas the Apostle,D,Ann Arbor,Michigan
42,535,Elizabeth Street,Complex of St. Thomas the Apostle,D,Ann Arbor,Michigan
42,536,Elizabeth Street,Complex of St. Thomas the Apostle,D,Ann Arbor,Michigan
42,537,Elizabeth Street,Complex of St. Thomas the Apostle,D,Ann Arbor,Michigan
42,538,Elizabeth Street,Complex of St. Thomas the Apostle,D,Ann Arbor,Michigan
42,539,Elizabeth Street,Complex of St. Thomas the Apostle,D,Ann Arbor,Michigan
42,540,Elizabeth Street,Complex of St. Thomas the Apostle,D,Ann Arbor,Michigan
43,1111,Fair Oaks Parkway,James Petrie House,E,Ann Arbor,Michigan
44,220,North Fifth Avenue,Jacob Vandawarker House,D,Ann Arbor,Michigan
45,301,North Fifth Avenue,Baumgardner's Barn,D,Ann Arbor,Michigan
46,716,North Fifth Avenue,John Adam Volz House,D,Ann Arbor,Michigan
47,724,North Fifth Avenue,Central Brewery,D,Ann Arbor,Michigan
48,415,South Fifth Avenue,Gaskell/Beakes House,D,Ann Arbor,Michigan
49,120,South First Street,Allmendinger Organ Factory,D,Ann Arbor,Michigan
49,121,South First Street,Allmendinger Organ Factory,D,Ann Arbor,Michigan
49,122,South First Street,Allmendinger Organ Factory,D,Ann Arbor,Michigan
49,123,South First Street,Allmendinger Organ Factory,D,Ann Arbor,Michigan
49,124,South First Street,Allmendinger Organ Factory,D,Ann Arbor,Michigan
49,125,South First Street,Allmendinger Organ Factory,D,Ann Arbor,Michigan
49,126,South First Street,Allmendinger Organ Factory,D,Ann Arbor,Michigan
49,127,South First Street,Allmendinger Organ Factory,D,Ann Arbor,Michigan
49,128,South First Street,Allmendinger Organ Factory,D,Ann Arbor,Michigan
49,129,South First Street,Allmendinger Organ Factory,D,Ann Arbor,Michigan
49,130,South First Street,Allmendinger Organ Factory,D,Ann Arbor,Michigan
50,206,South First Street,City Brewery/Ann Arbor Central Mills,D,Ann Arbor,Michigan
50,207,South First Street,City Brewery/Ann Arbor Central Mills,D,Ann Arbor,Michigan
50,208,South First Street,City Brewery/Ann Arbor Central Mills,D,Ann Arbor,Michigan
50,209,South First Street,City Brewery/Ann Arbor Central Mills,D,Ann Arbor,Michigan
50,210,South First Street,City Brewery/Ann Arbor Central Mills,D,Ann Arbor,Michigan
50,211,South First Street,City Brewery/Ann Arbor Central Mills,D,Ann Arbor,Michigan
50,212,South First Street,City Brewery/Ann Arbor Central Mills,D,Ann Arbor,Michigan
50,213,South First Street,City Brewery/Ann Arbor Central Mills,D,Ann Arbor,Michigan
50,214,South First Street,City Brewery/Ann Arbor Central Mills,D,Ann Arbor,Michigan
50,215,South First Street,City Brewery/Ann Arbor Central Mills,D,Ann Arbor,Michigan
50,216,South First Street,City Brewery/Ann Arbor Central Mills,D,Ann Arbor,Michigan
50,217,South First Street,City Brewery/Ann Arbor Central Mills,D,Ann Arbor,Michigan
50,218,South First Street,City Brewery/Ann Arbor Central Mills,D,Ann Arbor,Michigan
50,219,South First Street,City Brewery/Ann Arbor Central Mills,D,Ann Arbor,Michigan
50,220,South First Street,City Brewery/Ann Arbor Central Mills,D,Ann Arbor,Michigan
50,221,South First Street,City Brewery/Ann Arbor Central Mills,D,Ann Arbor,Michigan
50,222,South First Street,City Brewery/Ann Arbor Central Mills,D,Ann Arbor,Michigan
51,632,South First Street,Raab/Harlacher House,W,Ann Arbor,Michigan
52,106,North Fourth Avenue,Land Title Building,D,Ann Arbor,Michigan
53,209,North Fourth Avenue,Kayser Block,D,Ann Arbor,Michigan
53,210,North Fourth Avenue,Kayser Block,D,Ann Arbor,Michigan
53,211,North Fourth Avenue,Kayser Block,D,Ann Arbor,Michigan
54,632,North Fourth Avenue,Bethel AME Church,D,Ann Arbor,Michigan
55,111,South Fourth Avenue,Heinrich Building,D,Ann Arbor,Michigan
56,402,South Fourth Avenue,Ottmar Eberbach House,D,Ann Arbor,Michigan
57,403,South Fourth Avenue,Joe T. Jacobs House (Muehlig Funeral Chapel),D,Ann Arbor,Michigan
58,423,South Fourth Avenue,Bethlehem Church,D,Ann Arbor,Michigan
59,445,South Fourth Avenue,George and Emma Wahr House,D,Ann Arbor,Michigan
60,405,Fourth Street,John Keck and Company (Argus Building),W,Ann Arbor,Michigan
61,916,Fuller Road,Washtenaw Light and Power Building,D,Ann Arbor,Michigan
62,2940,Fuller Road,Orrin White House,N,Ann Arbor,Michigan
63,1808,Hermitage Road,Marvin Ives House (The Hermitage),E,Ann Arbor,Michigan
64,504,High Street,Union Church,D,Ann Arbor,Michigan
65,2301,Highland Road,James Inglis House,E,Ann Arbor,Michigan
66,1310,Hill Street,Edward Campbell House,E,Ann Arbor,Michigan
67,1315,Hill Street,Amariah Freeman House,E,Ann Arbor,Michigan
68,1331,Hill Street,Delta Upsilon Fraternity,E,Ann Arbor,Michigan
69,1335,Hill Street,Farwell Wilson House,E,Ann Arbor,Michigan
70,1410,Hill Street,Paul C. Freer House (Schearer House),E,Ann Arbor,Michigan
71,1530,Hill Street,J. D. Baldwin House,E,Ann Arbor,Michigan
72,206,East Huron Street,Ann Arbor Tribune Building (Kleinschmidt Insurance Company),D,Ann Arbor,Michigan
73,219,East Huron Street,Firemen's Hall,D,Ann Arbor,Michigan
74,412,East Huron Street,Asahel Parkhurst House,D,Ann Arbor,Michigan
75,502,East Huron Street,Silas Douglass House,D,Ann Arbor,Michigan
76,512,East Huron Street,First Baptist Church,D,Ann Arbor,Michigan
77,617,East Huron Street,Harris Hall,D,Ann Arbor,Michigan
78,903,East Huron Street,Harvey Bannister House,D,Ann Arbor,Michigan
79,1007,East Huron Street,Charles Whitman House,D,Ann Arbor,Michigan
80,116,West Huron Street,Ann Arbor Bus Depot,D,Ann Arbor,Michigan
81,709,West Huron Street,John N. Gott House,W,Ann Arbor,Michigan
82,921,West Huron Street,Martin and Helena Noll House,W,Ann Arbor,Michigan
83,1020,West Huron Street,John M. Wheeler House,W,Ann Arbor,Michigan
84,114,North Ingalls Street,John and Electa Carman House,D,Ann Arbor,Michigan
85,220,North Ingalls Street,Phi Rho Sigma Fraternity,D,Ann Arbor,Michigan
86,321,North Ingalls Street,Reuben Kempf House,D,Ann Arbor,Michigan
87,420,West Jefferson Street,J. Frederick Schaeberle House,W,Ann Arbor,Michigan
88,520,West Jefferson Street,First German Methodist Church (Reorganized Church of Jesus Christ of Latter Day Saints),W,Ann Arbor,Michigan
89,1327,Jones Drive,Northern Brewery,N,Ann Arbor,Michigan
90,324,East Kingsley Street,North District Public School,D,Ann Arbor,Michigan
90,325,East Kingsley Street,North District Public School,D,Ann Arbor,Michigan
90,326,East Kingsley Street,North District Public School,D,Ann Arbor,Michigan
91,407,East Kingsley Street,John Lawrence House,D,Ann Arbor,Michigan
92,809,East Kingsley Street,Kingsley Apartments,D,Ann Arbor,Michigan
93,401,Lawrence Street,David Rinsey House,D,Ann Arbor,Michigan
94,601,Lawrence Street,Margaret Kearney House,D,Ann Arbor,Michigan
94,602,Lawrence Street,Margaret Kearney House,D,Ann Arbor,Michigan
94,603,Lawrence Street,Margaret Kearney House,D,Ann Arbor,Michigan
95,602,Lawrence Street,Thomas and Margaret Mitchell House (Gregory House),D,Ann Arbor,Michigan
96,221,East Liberty Street,Zwerdling-Darling Block,D,Ann Arbor,Michigan
96,222,East Liberty Street,Zwerdling-Darling Block,D,Ann Arbor,Michigan
96,223,East Liberty Street,Zwerdling-Darling Block,D,Ann Arbor,Michigan
96,224,East Liberty Street,Zwerdling-Darling Block,D,Ann Arbor,Michigan
96,225,East Liberty Street,Zwerdling-Darling Block,D,Ann Arbor,Michigan
96,226,East Liberty Street,Zwerdling-Darling Block,D,Ann Arbor,Michigan
96,227,East Liberty Street,Zwerdling-Darling Block,D,Ann Arbor,Michigan
96,228,East Liberty Street,Zwerdling-Darling Block,D,Ann Arbor,Michigan
96,229,East Liberty Street,Zwerdling-Darling Block,D,Ann Arbor,Michigan
96,230,East Liberty Street,Zwerdling-Darling Block,D,Ann Arbor,Michigan
96,231,East Liberty Street,Zwerdling-Darling Block,D,Ann Arbor,Michigan
96,232,East Liberty Street,Zwerdling-Darling Block,D,Ann Arbor,Michigan
96,233,East Liberty Street,Zwerdling-Darling Block,D,Ann Arbor,Michigan
96,234,East Liberty Street,Zwerdling-Darling Block,D,Ann Arbor,Michigan
96,235,East Liberty Street,Zwerdling-Darling Block,D,Ann Arbor,Michigan
96,236,East Liberty Street,Zwerdling-Darling Block,D,Ann Arbor,Michigan
96,237,East Liberty Street,Zwerdling-Darling Block,D,Ann Arbor,Michigan
96,238,East Liberty Street,Zwerdling-Darling Block,D,Ann Arbor,Michigan
96,239,East Liberty Street,Zwerdling-Darling Block,D,Ann Arbor,Michigan
96,240,East Liberty Street,Zwerdling-Darling Block,D,Ann Arbor,Michigan
96,241,East Liberty Street,Zwerdling-Darling Block,D,Ann Arbor,Michigan
96,242,East Liberty Street,Zwerdling-Darling Block,D,Ann Arbor,Michigan
96,243,East Liberty Street,Zwerdling-Darling Block,D,Ann Arbor,Michigan
96,244,East Liberty Street,Zwerdling-Darling Block,D,Ann Arbor,Michigan
96,245,East Liberty Street,Zwerdling-Darling Block,D,Ann Arbor,Michigan
96,246,East Liberty Street,Zwerdling-Darling Block,D,Ann Arbor,Michigan
96,247,East Liberty Street,Zwerdling-Darling Block,D,Ann Arbor,Michigan
96,248,East Liberty Street,Zwerdling-Darling Block,D,Ann Arbor,Michigan
96,249,East Liberty Street,Zwerdling-Darling Block,D,Ann Arbor,Michigan
96,250,East Liberty Street,Zwerdling-Darling Block,D,Ann Arbor,Michigan
96,251,East Liberty Street,Zwerdling-Darling Block,D,Ann Arbor,Michigan
96,252,East Liberty Street,Zwerdling-Darling Block,D,Ann Arbor,Michigan
96,253,East Liberty Street,Zwerdling-Darling Block,D,Ann Arbor,Michigan
96,254,East Liberty Street,Zwerdling-Darling Block,D,Ann Arbor,Michigan
96,255,East Liberty Street,Zwerdling-Darling Block,D,Ann Arbor,Michigan
96,256,East Liberty Street,Zwerdling-Darling Block,D,Ann Arbor,Michigan
96,257,East Liberty Street,Zwerdling-Darling Block,D,Ann Arbor,Michigan
96,258,East Liberty Street,Zwerdling-Darling Block,D,Ann Arbor,Michigan
96,259,East Liberty Street,Zwerdling-Darling Block,D,Ann Arbor,Michigan
96,260,East Liberty Street,Zwerdling-Darling Block,D,Ann Arbor,Michigan
96,261,East Liberty Street,Zwerdling-Darling Block,D,Ann Arbor,Michigan
96,262,East Liberty Street,Zwerdling-Darling Block,D,Ann Arbor,Michigan
96,263,East Liberty Street,Zwerdling-Darling Block,D,Ann Arbor,Michigan
96,264,East Liberty Street,Zwerdling-Darling Block,D,Ann Arbor,Michigan
96,265,East Liberty Street,Zwerdling-Darling Block,D,Ann Arbor,Michigan
96,266,East Liberty Street,Zwerdling-Darling Block,D,Ann Arbor,Michigan
96,267,East Liberty Street,Zwerdling-Darling Block,D,Ann Arbor,Michigan
96,268,East Liberty Street,Zwerdling-Darling Block,D,Ann Arbor,Michigan
96,269,East Liberty Street,Zwerdling-Darling Block,D,Ann Arbor,Michigan
96,270,East Liberty Street,Zwerdling-Darling Block,D,Ann Arbor,Michigan
96,271,East Liberty Street,Zwerdling-Darling Block,D,Ann Arbor,Michigan
96,272,East Liberty Street,Zwerdling-Darling Block,D,Ann Arbor,Michigan
96,273,East Liberty Street,Zwerdling-Darling Block,D,Ann Arbor,Michigan
96,274,East Liberty Street,Zwerdling-Darling Block,D,Ann Arbor,Michigan
96,275,East Liberty Street,Zwerdling-Darling Block,D,Ann Arbor,Michigan
96,276,East Liberty Street,Zwerdling-Darling Block,D,Ann Arbor,Michigan
96,277,East Liberty Street,Zwerdling-Darling Block,D,Ann Arbor,Michigan
96,278,East Liberty Street,Zwerdling-Darling Block,D,Ann Arbor,Michigan
96,279,East Liberty Street,Zwerdling-Darling Block,D,Ann Arbor,Michigan
96,280,East Liberty Street,Zwerdling-Darling Block,D,Ann Arbor,Michigan
96,281,East Liberty Street,Zwerdling-Darling Block,D,Ann Arbor,Michigan
96,282,East Liberty Street,Zwerdling-Darling Block,D,Ann Arbor,Michigan
96,283,East Liberty Street,Zwerdling-Darling Block,D,Ann Arbor,Michigan
96,284,East Liberty Street,Zwerdling-Darling Block,D,Ann Arbor,Michigan
96,285,East Liberty Street,Zwerdling-Darling Block,D,Ann Arbor,Michigan
96,286,East Liberty Street,Zwerdling-Darling Block,D,Ann Arbor,Michigan
96,287,East Liberty Street,Zwerdling-Darling Block,D,Ann Arbor,Michigan
96,288,East Liberty Street,Zwerdling-Darling Block,D,Ann Arbor,Michigan
96,289,East Liberty Street,Zwerdling-Darling Block,D,Ann Arbor,Michigan
96,290,East Liberty Street,Zwerdling-Darling Block,D,Ann Arbor,Michigan
96,291,East Liberty Street,Zwerdling-Darling Block,D,Ann Arbor,Michigan
96,292,East Liberty Street,Zwerdling-Darling Block,D,Ann Arbor,Michigan
96,293,East Liberty Street,Zwerdling-Darling Block,D,Ann Arbor,Michigan
97,321,East Liberty Street,Enoch James House,D,Ann Arbor,Michigan
98,519,East Liberty Street,Michigan Theater Building,D,Ann Arbor,Michigan
98,520,East Liberty Street,Michigan Theater Building,D,Ann Arbor,Michigan
98,521,East Liberty Street,Michigan Theater Building,D,Ann Arbor,Michigan
98,522,East Liberty Street,Michigan Theater Building,D,Ann Arbor,Michigan
98,523,East Liberty Street,Michigan Theater Building,D,Ann Arbor,Michigan
98,524,East Liberty Street,Michigan Theater Building,D,Ann Arbor,Michigan
98,525,East Liberty Street,Michigan Theater Building,D,Ann Arbor,Michigan
98,526,East Liberty Street,Michigan Theater Building,D,Ann Arbor,Michigan
98,527,East Liberty Street,Michigan Theater Building,D,Ann Arbor,Michigan
98,528,East Liberty Street,Michigan Theater Building,D,Ann Arbor,Michigan
98,529,East Liberty Street,Michigan Theater Building,D,Ann Arbor,Michigan
98,530,East Liberty Street,Michigan Theater Building,D,Ann Arbor,Michigan
98,531,East Liberty Street,Michigan Theater Building,D,Ann Arbor,Michigan
98,532,East Liberty Street,Michigan Theater Building,D,Ann Arbor,Michigan
98,533,East Liberty Street,Michigan Theater Building,D,Ann Arbor,Michigan
98,534,East Liberty Street,Michigan Theater Building,D,Ann Arbor,Michigan
98,535,East Liberty Street,Michigan Theater Building,D,Ann Arbor,Michigan
98,536,East Liberty Street,Michigan Theater Building,D,Ann Arbor,Michigan
98,537,East Liberty Street,Michigan Theater Building,D,Ann Arbor,Michigan
98,538,East Liberty Street,Michigan Theater Building,D,Ann Arbor,Michigan
98,539,East Liberty Street,Michigan Theater Building,D,Ann Arbor,Michigan
98,540,East Liberty Street,Michigan Theater Building,D,Ann Arbor,Michigan
98,541,East Liberty Street,Michigan Theater Building,D,Ann Arbor,Michigan
98,542,East Liberty Street,Michigan Theater Building,D,Ann Arbor,Michigan
98,543,East Liberty Street,Michigan Theater Building,D,Ann Arbor,Michigan
98,544,East Liberty Street,Michigan Theater Building,D,Ann Arbor,Michigan
98,545,East Liberty Street,Michigan Theater Building,D,Ann Arbor,Michigan
98,546,East Liberty Street,Michigan Theater Building,D,Ann Arbor,Michigan
98,547,East Liberty Street,Michigan Theater Building,D,Ann Arbor,Michigan
98,548,East Liberty Street,Michigan Theater Building,D,Ann Arbor,Michigan
98,549,East Liberty Street,Michigan Theater Building,D,Ann Arbor,Michigan
98,550,East Liberty Street,Michigan Theater Building,D,Ann Arbor,Michigan
98,551,East Liberty Street,Michigan Theater Building,D,Ann Arbor,Michigan
98,552,East Liberty Street,Michigan Theater Building,D,Ann Arbor,Michigan
98,553,East Liberty Street,Michigan Theater Building,D,Ann Arbor,Michigan
98,554,East Liberty Street,Michigan Theater Building,D,Ann Arbor,Michigan
98,555,East Liberty Street,Michigan Theater Building,D,Ann Arbor,Michigan
98,556,East Liberty Street,Michigan Theater Building,D,Ann Arbor,Michigan
98,557,East Liberty Street,Michigan Theater Building,D,Ann Arbor,Michigan
98,558,East Liberty Street,Michigan Theater Building,D,Ann Arbor,Michigan
98,559,East Liberty Street,Michigan Theater Building,D,Ann Arbor,Michigan
98,560,East Liberty Street,Michigan Theater Building,D,Ann Arbor,Michigan
98,561,East Liberty Street,Michigan Theater Building,D,Ann Arbor,Michigan
98,562,East Liberty Street,Michigan Theater Building,D,Ann Arbor,Michigan
98,563,East Liberty Street,Michigan Theater Building,D,Ann Arbor,Michigan
98,564,East Liberty Street,Michigan Theater Building,D,Ann Arbor,Michigan
98,565,East Liberty Street,Michigan Theater Building,D,Ann Arbor,Michigan
98,566,East Liberty Street,Michigan Theater Building,D,Ann Arbor,Michigan
98,567,East Liberty Street,Michigan Theater Building,D,Ann Arbor,Michigan
98,568,East Liberty Street,Michigan Theater Building,D,Ann Arbor,Michigan
98,569,East Liberty Street,Michigan Theater Building,D,Ann Arbor,Michigan
98,570,East Liberty Street,Michigan Theater Building,D,Ann Arbor,Michigan
98,571,East Liberty Street,Michigan Theater Building,D,Ann Arbor,Michigan
98,572,East Liberty Street,Michigan Theater Building,D,Ann Arbor,Michigan
98,573,East Liberty Street,Michigan Theater Building,D,Ann Arbor,Michigan
98,574,East Liberty Street,Michigan Theater Building,D,Ann Arbor,Michigan
98,575,East Liberty Street,Michigan Theater Building,D,Ann Arbor,Michigan
98,576,East Liberty Street,Michigan Theater Building,D,Ann Arbor,Michigan
98,577,East Liberty Street,Michigan Theater Building,D,Ann Arbor,Michigan
98,578,East Liberty Street,Michigan Theater Building,D,Ann Arbor,Michigan
98,579,East Liberty Street,Michigan Theater Building,D,Ann Arbor,Michigan
98,580,East Liberty Street,Michigan Theater Building,D,Ann Arbor,Michigan
98,581,East Liberty Street,Michigan Theater Building,D,Ann Arbor,Michigan
98,582,East Liberty Street,Michigan Theater Building,D,Ann Arbor,Michigan
98,583,East Liberty Street,Michigan Theater Building,D,Ann Arbor,Michigan
98,584,East Liberty Street,Michigan Theater Building,D,Ann Arbor,Michigan
98,585,East Liberty Street,Michigan Theater Building,D,Ann Arbor,Michigan
98,586,East Liberty Street,Michigan Theater Building,D,Ann Arbor,Michigan
98,587,East Liberty Street,Michigan Theater Building,D,Ann Arbor,Michigan
98,588,East Liberty Street,Michigan Theater Building,D,Ann Arbor,Michigan
98,589,East Liberty Street,Michigan Theater Building,D,Ann Arbor,Michigan
98,590,East Liberty Street,Michigan Theater Building,D,Ann Arbor,Michigan
98,591,East Liberty Street,Michigan Theater Building,D,Ann Arbor,Michigan
98,592,East Liberty Street,Michigan Theater Building,D,Ann Arbor,Michigan
98,593,East Liberty Street,Michigan Theater Building,D,Ann Arbor,Michigan
98,594,East Liberty Street,Michigan Theater Building,D,Ann Arbor,Michigan
98,595,East Liberty Street,Michigan Theater Building,D,Ann Arbor,Michigan
98,596,East Liberty Street,Michigan Theater Building,D,Ann Arbor,Michigan
98,597,East Liberty Street,Michigan Theater Building,D,Ann Arbor,Michigan
98,598,East Liberty Street,Michigan Theater Building,D,Ann Arbor,Michigan
98,599,East Liberty Street,Michigan Theater Building,D,Ann Arbor,Michigan
98,600,East Liberty Street,Michigan Theater Building,D,Ann Arbor,Michigan
98,601,East Liberty Street,Michigan Theater Building,D,Ann Arbor,Michigan
98,602,East Liberty Street,Michigan Theater Building,D,Ann Arbor,Michigan
98,603,East Liberty Street,Michigan Theater Building,D,Ann Arbor,Michigan
98,604,East Liberty Street,Michigan Theater Building,D,Ann Arbor,Michigan
98,605,East Liberty Street,Michigan Theater Building,D,Ann Arbor,Michigan
98,606,East Liberty Street,Michigan Theater Building,D,Ann Arbor,Michigan
98,607,East Liberty Street,Michigan Theater Building,D,Ann Arbor,Michigan
98,608,East Liberty Street,Michigan Theater Building,D,Ann Arbor,Michigan
98,609,East Liberty Street,Michigan Theater Building,D,Ann Arbor,Michigan
99,111,West Liberty Street,Ludwig Walz Grocery,D,Ann Arbor,Michigan
100,112,West Liberty Street,The Adam and Anton Schaeberle Buildings,D,Ann Arbor,Michigan
100,113,West Liberty Street,The Adam and Anton Schaeberle Buildings,D,Ann Arbor,Michigan
100,114,West Liberty Street,The Adam and Anton Schaeberle Buildings,D,Ann Arbor,Michigan
100,115,West Liberty Street,The Adam and Anton Schaeberle Buildings,D,Ann Arbor,Michigan
100,116,West Liberty Street,The Adam and Anton Schaeberle Buildings,D,Ann Arbor,Michigan
100,117,West Liberty Street,The Adam and Anton Schaeberle Buildings,D,Ann Arbor,Michigan
100,118,West Liberty Street,The Adam and Anton Schaeberle Buildings,D,Ann Arbor,Michigan
100,119,West Liberty Street,The Adam and Anton Schaeberle Buildings,D,Ann Arbor,Michigan
100,120,West Liberty Street,The Adam and Anton Schaeberle Buildings,D,Ann Arbor,Michigan
100,121,West Liberty Street,The Adam and Anton Schaeberle Buildings,D,Ann Arbor,Michigan
100,122,West Liberty Street,The Adam and Anton Schaeberle Buildings,D,Ann Arbor,Michigan
101,113,West Liberty Street,John Haarer Building,D,Ann Arbor,Michigan
102,115,West Liberty Street,Walker Brothers Buildings,D,Ann Arbor,Michigan
102,117,West Liberty Street,Walker Brothers Buildings,D,Ann Arbor,Michigan
102,118,West Liberty Street,Walker Brothers Buildings,D,Ann Arbor,Michigan
102,119,West Liberty Street,Walker Brothers Buildings,D,Ann Arbor,Michigan
103,326,West Liberty Street,Peter Brehm House,W,Ann Arbor,Michigan
104,408,West Liberty Street,Albert Mann House,W,Ann Arbor,Michigan
105,603,West Liberty Street,John and Andrew Jackson House,W,Ann Arbor,Michigan
106,626,West Liberty Street,William and Katherine Kuhn House,W,Ann Arbor,Michigan
107,706,West Liberty Street,John Christian Burkhart House,W,Ann Arbor,Michigan
108,818,West Liberty Street,John Hagen House,W,Ann Arbor,Michigan
109,902,West Liberty Street,Christian Walker House,W,Ann Arbor,Michigan
110,1422,West Liberty Street,Robert MacKenzie House (Anna Botsford Bach Home),W,Ann Arbor,Michigan
111,1444,West Liberty Street,Jacob Beck House,W,Ann Arbor,Michigan
112,219,North Main Street,Pardon Blocks,D,Ann Arbor,Michigan
112,220,North Main Street,Pardon Blocks,D,Ann Arbor,Michigan
112,221,North Main Street,Pardon Blocks,D,Ann Arbor,Michigan
112,222,North Main Street,Pardon Blocks,D,Ann Arbor,Michigan
112,223,North Main Street,Pardon Blocks,D,Ann Arbor,Michigan
113,220,North Main Street,United States Post Office,D,Ann Arbor,Michigan
114,301,North Main Street,Dr. Chase's Steam Printing House,D,Ann Arbor,Michigan
114,302,North Main Street,Dr. Chase's Steam Printing House,D,Ann Arbor,Michigan
114,303,North Main Street,Dr. Chase's Steam Printing House,D,Ann Arbor,Michigan
114,304,North Main Street,Dr. Chase's Steam Printing House,D,Ann Arbor,Michigan
114,305,North Main Street,Dr. Chase's Steam Printing House,D,Ann Arbor,Michigan
115,415,North Main Street,Thomas Earl House,D,Ann Arbor,Michigan
116,500,North Main Street,Kellogg-Warden House,D,Ann Arbor,Michigan
117,100,South Main Street,Glazier Building,D,Ann Arbor,Michigan
118,120,South Main Street,Bank Block (Goodyear's),D,Ann Arbor,Michigan
118,121,South Main Street,Bank Block (Goodyear's),D,Ann Arbor,Michigan
118,122,South Main Street,Bank Block (Goodyear's),D,Ann Arbor,Michigan
118,123,South Main Street,Bank Block (Goodyear's),D,Ann Arbor,Michigan
118,124,South Main Street,Bank Block (Goodyear's),D,Ann Arbor,Michigan
119,126,South Main Street,Philip Bach Building,D,Ann Arbor,Michigan
120,201,South Main Street,First National Bank Building,D,Ann Arbor,Michigan
120,202,South Main Street,First National Bank Building,D,Ann Arbor,Michigan
120,203,South Main Street,First National Bank Building,D,Ann Arbor,Michigan
121,301,South Main Street,Henry Binder's Hall,D,Ann Arbor,Michigan
122,319,South Main Street,Marchese Brothers Building,D,Ann Arbor,Michigan
122,320,South Main Street,Marchese Brothers Building,D,Ann Arbor,Michigan
122,321,South Main Street,Marchese Brothers Building,D,Ann Arbor,Michigan
122,322,South Main Street,Marchese Brothers Building,D,Ann Arbor,Michigan
122,323,South Main Street,Marchese Brothers Building,D,Ann Arbor,Michigan
122,324,South Main Street,Marchese Brothers Building,D,Ann Arbor,Michigan
122,325,South Main Street,Marchese Brothers Building,D,Ann Arbor,Michigan
123,723,Moore Street,Waite-Kellogg House,N,Ann Arbor,Michigan
124,415,Observatory Street,Forest Hill Cemetery,E,Ann Arbor,Michigan
125,227,Orchard H1ills Drive,William and Mary Palmer House,E,Ann Arbor,Michigan
126,700,Oxford Road,Albert Lockwood House (Sigma Nu),E,Ann Arbor,Michigan
127,120,Packard Road,William W. Wines House (Dean House),D,Ann Arbor,Michigan
128,2301,Packard Road,William Anderson House and Wisdom Chapel,E,Ann Arbor,Michigan
129,2600,Packard Road,Stone School,E,Ann Arbor,Michigan
130,2781,Packard Road,Benajah Ticknor Farm (Cobblestone Farm),E,Ann Arbor,Michigan
131,1324,Pontiac Trail,Jonathan Lund House,N,Ann Arbor,Michigan
132,1425,Pontiac Trail,Guy Beckley House,N,Ann Arbor,Michigan
133,1709,Pontiac Trail,Josiah Beckley House,N,Ann Arbor,Michigan
134,1136,Prospect Street,Samuel Miller House,E,Ann Arbor,Michigan
135,631,Second Street,Wiegant-Hochrein House,W,Ann Arbor,Michigan
136,502,Sixth Street,John Lucas House,W,Ann Arbor,Michigan
137,100,North State Street,First Unitarian Church,D,Ann Arbor,Michigan
138,110,North State Street,First Unitarian Church Parsonage,D,Ann Arbor,Michigan
139,200,and 322 North State Street,Wil-Dean and Duncan Manor Apartments,D,Ann Arbor,Michigan
140,307,North State Street,Hanorah and Ellen Morse House,D,Ann Arbor,Michigan
141,406,North State Street,Enoch and Keziah Terhune House,D,Ann Arbor,Michigan
142,410,North State Street,Society of Friends Meeting House,D,Ann Arbor,Michigan
143,418,North State Street,Newton A. Prudden House,D,Ann Arbor,Michigan
144,231,South State Street,State Theater,D,Ann Arbor,Michigan
145,326,South State Street,Nickels Arcade,D,Ann Arbor,Michigan
145,327,South State Street,Nickels Arcade,D,Ann Arbor,Michigan
145,328,South State Street,Nickels Arcade,D,Ann Arbor,Michigan
146,434,South State Street,Newberry Hall,D,Ann Arbor,Michigan
147,730,Tappan Street,Memorial Christian Church,E,Ann Arbor,Michigan
147,731,Tappan Street,Memorial Christian Church,E,Ann Arbor,Michigan
147,732,Tappan Street,Memorial Christian Church,E,Ann Arbor,Michigan
147,733,Tappan Street,Memorial Christian Church,E,Ann Arbor,Michigan
147,734,Tappan Street,Memorial Christian Church,E,Ann Arbor,Michigan
148,206,North Thayer Street,Thomas Ready House,D,Ann Arbor,Michigan
149,210,North Thayer Street,Patrick O'Hearn House,D,Ann Arbor,Michigan
150,212,Third Street,Katherine Staeb House,W,Ann Arbor,Michigan
151,331,Thompson Street,St. Mary's Student Chapel,D,Ann Arbor,Michigan
151,332,Thompson Street,St. Mary's Student Chapel,D,Ann Arbor,Michigan
151,333,Thompson Street,St. Mary's Student Chapel,D,Ann Arbor,Michigan
151,334,Thompson Street,St. Mary's Student Chapel,D,Ann Arbor,Michigan
151,335,Thompson Street,St. Mary's Student Chapel,D,Ann Arbor,Michigan
151,336,Thompson Street,St. Mary's Student Chapel,D,Ann Arbor,Michigan
151,337,Thompson Street,St. Mary's Student Chapel,D,Ann Arbor,Michigan
151,338,Thompson Street,St. Mary's Student Chapel,D,Ann Arbor,Michigan
151,339,Thompson Street,St. Mary's Student Chapel,D,Ann Arbor,Michigan
152,1219,Traver Street,Solomon and Jacob Armstrong Houses,N,Ann Arbor,Michigan
152,1223,Traver Street,Solomon and Jacob Armstrong Houses,N,Ann Arbor,Michigan
153,619,East University Avenue,Anberay Apartments,E,Ann Arbor,Michigan
154,815,South University Avenue,University of Michigan President's House,E,Ann Arbor,Michigan
155,947,Wall Street,Nathan Burnham House,N,Ann Arbor,Michigan
156,201,East Washington Street,Hoelzle Meat Market,D,Ann Arbor,Michigan
157,216,East Washington Street,Frederick Sorg Block,D,Ann Arbor,Michigan
157,217,East Washington Street,Frederick Sorg Block,D,Ann Arbor,Michigan
157,218,East Washington Street,Frederick Sorg Block,D,Ann Arbor,Michigan
158,219,East Washington Street,Weinmann Block,D,Ann Arbor,Michigan
158,220,East Washington Street,Weinmann Block,D,Ann Arbor,Michigan
158,221,East Washington Street,Weinmann Block,D,Ann Arbor,Michigan
159,315,East Washington Street,Michigan Bell Telephone Company,D,Ann Arbor,Michigan
159,316,East Washington Street,Michigan Bell Telephone Company,D,Ann Arbor,Michigan
159,317,East Washington Street,Michigan Bell Telephone Company,D,Ann Arbor,Michigan
159,318,East Washington Street,Michigan Bell Telephone Company,D,Ann Arbor,Michigan
159,319,East Washington Street,Michigan Bell Telephone Company,D,Ann Arbor,Michigan
159,320,East Washington Street,Michigan Bell Telephone Company,D,Ann Arbor,Michigan
159,321,East Washington Street,Michigan Bell Telephone Company,D,Ann Arbor,Michigan
159,322,East Washington Street,Michigan Bell Telephone Company,D,Ann Arbor,Michigan
159,323,East Washington Street,Michigan Bell Telephone Company,D,Ann Arbor,Michigan
160,322,East Washington Street,Jacob Hoffstetter House,D,Ann Arbor,Michigan
161,332,East Washington Street,Methodist Episcopal Parsonage,D,Ann Arbor,Michigan
162,411,East Washington Street,Albert Polhemus House,D,Ann Arbor,Michigan
162,412,East Washington Street,Albert Polhemus House,D,Ann Arbor,Michigan
162,413,East Washington Street,Albert Polhemus House,D,Ann Arbor,Michigan
163,119,West Washington Street,Germania Hotel,D,Ann Arbor,Michigan
163,120,West Washington Street,Germania Hotel,D,Ann Arbor,Michigan
163,121,West Washington Street,Germania Hotel,D,Ann Arbor,Michigan
163,122,West Washington Street,Germania Hotel,D,Ann Arbor,Michigan
163,123,West Washington Street,Germania Hotel,D,Ann Arbor,Michigan
164,122,West Washington Street,John Wagner Jr. Blacksmith Shop,D,Ann Arbor,Michigan
165,719,West Washington Street,David F. Allmendinger House,W,Ann Arbor,Michigan
166,1443,Washtenaw Avenue,Phi Kappa Sigma Fraternity (Trotter House),E,Ann Arbor,Michigan
167,1547,Washtenaw Avenue,Henry Simmons Frieze House,E,Ann Arbor,Michigan
168,1550,Washtenaw Avenue,Phi Kappa Psi Fraternity (Zeta Tau Alpha Sorority),E,Ann Arbor,Michigan
169,1555,Washtenaw Avenue,Edward Campbell House (Campbell-Hays House),E,Ann Arbor,Michigan
170,1850,Washtenaw Avenue,Edward Adams House,E,Ann Arbor,Michigan
171,1917,Washtenaw Avenue,Dean Myers House (First Unitarian Church),E,Ann Arbor,Michigan
172,2015,Washtenaw Avenue,Leander Hoover Mansion,E,Ann Arbor,Michigan
173,2117,Washtenaw Avenue,Bell-Spaulding House (Tuomy House),E,Ann Arbor,Michigan
174,2220,Washtenaw Avenue,Hildene Manor,E,Ann Arbor,Michigan
175,2460,Washtenaw Avenue,Tuomy Hills Gas Station,E,Ann Arbor,Michigan
176,608,East William Street,First Congregational Church,D,Ann Arbor,Michigan
177,611,East William Street,DKE Shant,D,Ann Arbor,Michigan
178,1115,Woodlawn Street,Christian Eberbach House,E,Ann Arbor,Michigan
